
# Worst residual: 43.17 km
# MJD 60524.000000 (2024 Aug  2  0:00)
Chang'e-6 = 2024-083A = NORAD 59627
1 59627U 24083A   24215.49919926  .00000000  00000-0  00000-0 2 23694
2 59627 026.4244 007.5541 8295332 081.9203 124.2489 00.00861641    06

# Worst residual: 46.39 km
# MJD 60525.000000 (2024 Aug  3  0:00)
Chang'e-6 = 2024-083A = NORAD 59627
1 59627U 24083A   24216.49919926  .00000000  00000-0  00000-0 2 23695
2 59627 026.3662 007.1353 8138392 083.1408 125.8918 00.00845402    00

# Worst residual: 50.89 km
# MJD 60526.000000 (2024 Aug  4  0:00)
Chang'e-6 = 2024-083A = NORAD 59627
1 59627U 24083A   24217.49919926  .00000000  00000-0  00000-0 2 23696
2 59627 026.3131 006.7275 7964982 084.3757 127.5949 00.00828726    03

# Worst residual: 51.05 km
# MJD 60527.000000 (2024 Aug  5  0:00)
Chang'e-6 = 2024-083A = NORAD 59627
1 59627U 24083A   24218.49919926  .00000000  00000-0  00000-0 2 23697
2 59627 026.2650 006.3326 7775535 085.6126 129.3794 00.00811711    03

# Worst residual: 53.04 km
# MJD 60528.000000 (2024 Aug  6  0:00)
Chang'e-6 = 2024-083A = NORAD 59627
1 59627U 24083A   24219.49919926  .00000000  00000-0  00000-0 2 23698
2 59627 026.2217 005.9510 7570944 086.8390 131.2613 00.00794446    02

# Worst residual: 54.43 km
# MJD 60529.000000 (2024 Aug  7  0:00)
Chang'e-6 = 2024-083A = NORAD 59627
1 59627U 24083A   24220.49919926  .00000000  00000-0  00000-0 2 23690
2 59627 026.1831 005.5837 7352335 088.0423 133.2511 00.00777014    05

# Worst residual: 55.74 km
# MJD 60530.000000 (2024 Aug  8  0:00)
Chang'e-6 = 2024-083A = NORAD 59627
1 59627U 24083A   24221.49919926  .00000000  00000-0  00000-0 2 23691
2 59627 026.1491 005.2309 7121000 089.2106 135.3554 00.00759495    05

# Worst residual: 54.70 km
# MJD 60531.000000 (2024 Aug  9  0:00)
Chang'e-6 = 2024-083A = NORAD 59627
1 59627U 24083A   24222.49919926  .00000000  00000-0  00000-0 2 23692
2 59627 026.1192 004.8930 6878592 090.3306 137.5787 00.00741964    01

# Worst residual: 55.15 km
# MJD 60532.000000 (2024 Aug 10  0:00)
Chang'e-6 = 2024-083A = NORAD 59627
1 59627U 24083A   24223.49919926  .00000000  00000-0  00000-0 2 23693
2 59627 026.0934 004.5694 6626900 091.3897 139.9241 00.00724499    03

# Worst residual: 54.06 km
# MJD 60533.000000 (2024 Aug 11  0:00)
Chang'e-6 = 2024-083A = NORAD 59627
1 59627U 24083A   24224.49919926  .00000000  00000-0  00000-0 2 23694
2 59627 026.0712 004.2601 6367991 092.3740 142.3941 00.00707185    00

# Worst residual: 52.27 km
# MJD 60534.000000 (2024 Aug 12  0:00)
Chang'e-6 = 2024-083A = NORAD 59627
1 59627U 24083A   24225.49919926  .00000000  00000-0  00000-0 2 23695
2 59627 026.0525 003.9648 6104276 093.2687 144.9907 00.00690114    07

# Worst residual: 50.79 km
# MJD 60535.000000 (2024 Aug 13  0:00)
Chang'e-6 = 2024-083A = NORAD 59627
1 59627U 24083A   24226.49919926  .00000000  00000-0  00000-0 2 23696
2 59627 026.0370 003.6831 5838513 094.0587 147.7139 00.00673394    00

# Worst residual: 48.31 km
# MJD 60536.000000 (2024 Aug 14  0:00)
Chang'e-6 = 2024-083A = NORAD 59627
1 59627U 24083A   24227.49919926  .00000000  00000-0  00000-0 2 23697
2 59627 026.0245 003.4150 5573975 094.7292 150.5593 00.00657147    05
